{"type": "FeatureCollection", "features": [ {"type": "Feature", "properties": {"norad_id": 37216, "name": "COSMO-SKYMED 4", "group": "resource", "lat": 32.0743674811743, "lon": 170.70625558049713, "alt_km": 620.0775929391648, "timestamp": "2025-12-20T11:30:28.027905+00:00", "meta": {"OBJECT_NAME": "COSMO-SKYMED 4", "OBJECT_ID": "2010-060A", "EPOCH": "2025-12-20T04:52:51.566304", "MEAN_MOTION": 14.82153161, "ECCENTRICITY": 0.0001397, "INCLINATION": 97.8798, "RA_OF_ASC_NODE": 175.4135, "ARG_OF_PERICENTER": 83.7669, "MEAN_ANOMALY": 276.3703, "EPHEMERIS_TYPE": 0, "CLASSIFICATION_TYPE": "U", "NORAD_CAT_ID": 37216, "ELEMENT_SET_NO": 999, "REV_AT_EPOCH": 81805, "BSTAR": 7.3682e-05, "MEAN_MOTION_DOT": 5.34e-06, "MEAN_MOTION_DDOT": 0}, "tle": {"line1": "1 37216U 10060A   25354.20337461  .00000534  00000+0  73682-4 0  9992", "line2": "2 37216  97.8798 175.4135 0001397  83.7669 276.3703 14.82153161818056"}}, "geometry": {"type": "Point", "coordinates": [170.70625558049713, 32.0743674811743]}}, {"type": "Feature", "properties": {"norad_id": 37387, "name": "RESOURCESAT-2", "group": "resource", "lat": 65.1842776830532, "lon": -102.46205879153422, "alt_km": 813.6670107184218, "timestamp": "2025-12-20T11:30:28.027915+00:00", "meta": {"OBJECT_NAME": "RESOURCESAT-2", "OBJECT_ID": "2011-015A", "EPOCH": "2025-12-20T04:13:14.196000", "MEAN_MOTION": 14.21600026, "ECCENTRICITY": 0.0006082, "INCLINATION": 98.7867, "RA_OF_ASC_NODE": 57.694, "ARG_OF_PERICENTER": 22.6144, "MEAN_ANOMALY": 337.53, "EPHEMERIS_TYPE": 0, "CLASSIFICATION_TYPE": "U", "NORAD_CAT_ID": 37387, "ELEMENT_SET_NO": 999, "REV_AT_EPOCH": 76074, "BSTAR": 6.6613e-05, "MEAN_MOTION_DOT": 1.02e-06, "MEAN_MOTION_DDOT": 0}, "tle": {"line1": "1 37387U 11015A   25354.17585875  .00000102  00000+0  66613-4 0  9999", "line2": "2 37387  98.7867  57.6940 0006082  22.6144 337.5300 14.21600026760748"}}, "geometry": {"type": "Point", "coordinates": [-102.46205879153422, 65.1842776830532]}}, {"type": "Feature", "properties": {"norad_id": 37781, "name": "HAIYANG-2A", "group": "resource", "lat": 50.40413681619659, "lon": -16.17794852918878, "alt_km": 962.1787762195909, "timestamp": "2025-12-20T11:30:28.027926+00:00", "meta": {"OBJECT_NAME": "HAIYANG-2A", "OBJECT_ID": "2011-043A", "EPOCH": "2025-12-20T04:17:36.961728", "MEAN_MOTION": 13.78836711, "ECCENTRICITY": 0.0001656, "INCLINATION": 99.3371, "RA_OF_ASC_NODE": 354.9989, "ARG_OF_PERICENTER": 73.6723, "MEAN_ANOMALY": 286.4611, "EPHEMERIS_TYPE": 0, "CLASSIFICATION_TYPE": "U", "NORAD_CAT_ID": 37781, "ELEMENT_SET_NO": 999, "REV_AT_EPOCH": 72201, "BSTAR": 0.00028575, "MEAN_MOTION_DOT": 2.47e-06, "MEAN_MOTION_DDOT": 0}, "tle": {"line1": "1 37781U 11043A   25354.17890002  .00000247  00000+0  28575-3 0  9993", "line2": "2 37781  99.3371 354.9989 0001656  73.6723 286.4611 13.78836711722018"}}, "geometry": {"type": "Point", "coordinates": [-16.17794852918878, 50.40413681619659]}}, {"type": "Feature", "properties": {"norad_id": 37791, "name": "RASAT", "group": "resource", "lat": 52.9035691376807, "lon": -85.56988067858185, "alt_km": 661.3027619416998, "timestamp": "2025-12-20T11:30:28.027936+00:00", "meta": {"OBJECT_NAME": "RASAT", "OBJECT_ID": "2011-044D", "EPOCH": "2025-12-20T06:07:41.426112", "MEAN_MOTION": 14.67919556, "ECCENTRICITY": 0.002154, "INCLINATION": 98.0652, "RA_OF_ASC_NODE": 83.4017, "ARG_OF_PERICENTER": 42.3794, "MEAN_ANOMALY": 339.826, "EPHEMERIS_TYPE": 0, "CLASSIFICATION_TYPE": "U", "NORAD_CAT_ID": 37791, "ELEMENT_SET_NO": 999, "REV_AT_EPOCH": 76693, "BSTAR": 9.3291e-05, "MEAN_MOTION_DOT": 4.86e-06, "MEAN_MOTION_DDOT": 0}, "tle": {"line1": "1 37791U 11044D   25354.25534058  .00000486  00000+0  93291-4 0  9993", "line2": "2 37791  98.0652  83.4017 0021540  42.3794 339.8260 14.67919556766938"}}, "geometry": {"type": "Point", "coordinates": [-85.56988067858185, 52.9035691376807]}}, {"type": "Feature", "properties": {"norad_id": 37841, "name": "SRMSAT", "group": "resource", "lat": -18.538322543413297, "lon": -51.47351156540615, "alt_km": 861.4009222247141, "timestamp": "2025-12-20T11:30:28.027946+00:00", "meta": {"OBJECT_NAME": "SRMSAT", "OBJECT_ID": "2011-058D", "EPOCH": "2025-12-19T14:40:57.595008", "MEAN_MOTION": 14.11513672, "ECCENTRICITY": 0.0011928, "INCLINATION": 19.9723, "RA_OF_ASC_NODE": 66.3596, "ARG_OF_PERICENTER": 29.0252, "MEAN_ANOMALY": 120.8933, "EPHEMERIS_TYPE": 0, "CLASSIFICATION_TYPE": "U", "NORAD_CAT_ID": 37841, "ELEMENT_SET_NO": 999, "REV_AT_EPOCH": 73241, "BSTAR": 6.4258e-05, "MEAN_MOTION_DOT": 3.83e-06, "MEAN_MOTION_DDOT": 0}, "tle": {"line1": "1 37841U 11058D   25353.61177772  .00000383  00000+0  64258-4 0  9996", "line2": "2 37841  19.9723  66.3596 0011928  29.0252 120.8933 14.11513672732416"}}, "geometry": {"type": "Point", "coordinates": [-51.47351156540615, -18.538322543413297]}}, {"type": "Feature", "properties": {"norad_id": 38012, "name": "PLEIADES 1A", "group": "resource", "lat": 20.727629863044896, "lon": 64.00771887778444, "alt_km": 697.271847947407, "timestamp": "2025-12-20T11:30:28.027956+00:00", "meta": {"OBJECT_NAME": "PLEIADES 1A", "OBJECT_ID": "2011-076F", "EPOCH": "2025-12-20T04:55:50.962080", "MEAN_MOTION": 14.58567927, "ECCENTRICITY": 0.0001142, "INCLINATION": 98.1823, "RA_OF_ASC_NODE": 66.8591, "ARG_OF_PERICENTER": 75.8272, "MEAN_ANOMALY": 307.1531, "EPHEMERIS_TYPE": 0, "CLASSIFICATION_TYPE": "U", "NORAD_CAT_ID": 38012, "ELEMENT_SET_NO": 999, "REV_AT_EPOCH": 74590, "BSTAR": 7.9501e-05, "MEAN_MOTION_DOT": 3.24e-06, "MEAN_MOTION_DDOT": 0}, "tle": {"line1": "1 38012U 11076F   25354.20545095  .00000324  00000+0  79501-4 0  9992", "line2": "2 38012  98.1823  66.8591 0001142  75.8272 307.1531 14.58567927745900"}}, "geometry": {"type": "Point", "coordinates": [64.00771887778444, 20.727629863044896]}}, {"type": "Feature", "properties": {"norad_id": 38038, "name": "ZIYUAN 1-02C (ZY 1-02C)", "group": "resource", "lat": 74.69049147609329, "lon": 27.535339191768056, "alt_km": 753.9050876757747, "timestamp": "2025-12-20T11:30:28.027966+00:00", "meta": {"OBJECT_NAME": "ZIYUAN 1-02C (ZY 1-02C)", "OBJECT_ID": "2011-079A", "EPOCH": "2025-12-20T04:54:04.739328", "MEAN_MOTION": 14.38019719, "ECCENTRICITY": 0.0007435, "INCLINATION": 98.4331, "RA_OF_ASC_NODE": 60.0807, "ARG_OF_PERICENTER": 119.0109, "MEAN_ANOMALY": 334.0362, "EPHEMERIS_TYPE": 0, "CLASSIFICATION_TYPE": "U", "NORAD_CAT_ID": 38038, "ELEMENT_SET_NO": 999, "REV_AT_EPOCH": 73348, "BSTAR": 0.0001086, "MEAN_MOTION_DOT": 2.85e-06, "MEAN_MOTION_DDOT": 0}, "tle": {"line1": "1 38038U 11079A   25354.20422152  .00000285  00000+0  10860-3 0  9999", "line2": "2 38038  98.4331  60.0807 0007435 119.0109 334.0362 14.38019719733482"}}, "geometry": {"type": "Point", "coordinates": [27.535339191768056, 74.69049147609329]}}, {"type": "Feature", "properties": {"norad_id": 38338, "name": "ARIRANG-3 (KOMPSAT-3)", "group": "resource", "lat": 6.171406087112038, "lon": -51.78067157981216, "alt_km": 687.7411057438721, "timestamp": "2025-12-20T11:30:28.027977+00:00", "meta": {"OBJECT_NAME": "ARIRANG-3 (KOMPSAT-3)", "OBJECT_ID": "2012-025B", "EPOCH": "2025-12-20T03:15:53.964864", "MEAN_MOTION": 14.61721587, "ECCENTRICITY": 0.0004906, "INCLINATION": 98.3333, "RA_OF_ASC_NODE": 308.7814, "ARG_OF_PERICENTER": 313.0694, "MEAN_ANOMALY": 47.0095, "EPHEMERIS_TYPE": 0, "CLASSIFICATION_TYPE": "U", "NORAD_CAT_ID": 38338, "ELEMENT_SET_NO": 999, "REV_AT_EPOCH": 72518, "BSTAR": 8.5915e-05, "MEAN_MOTION_DOT": 3.8e-06, "MEAN_MOTION_DDOT": 0}, "tle": {"line1": "1 38338U 12025B   25354.13604126  .00000380  00000+0  85915-4 0  9999", "line2": "2 38338  98.3333 308.7814 0004906 313.0694  47.0095 14.61721587725182"}}, "geometry": {"type": "Point", "coordinates": [-51.78067157981216, 6.171406087112038]}}, {"type": "Feature", "properties": {"norad_id": 38709, "name": "EXACTVIEW-1 (ADS-1B)", "group": "resource", "lat": 59.168937981811844, "lon": 87.69737481271255, "alt_km": 802.8960049153447, "timestamp": "2025-12-20T11:30:28.027987+00:00", "meta": {"OBJECT_NAME": "EXACTVIEW-1 (ADS-1B)", "OBJECT_ID": "2012-039C", "EPOCH": "2025-12-19T21:44:37.095360", "MEAN_MOTION": 14.24910684, "ECCENTRICITY": 0.0010313, "INCLINATION": 98.9639, "RA_OF_ASC_NODE": 102.4464, "ARG_OF_PERICENTER": 333.0281, "MEAN_ANOMALY": 27.036, "EPHEMERIS_TYPE": 0, "CLASSIFICATION_TYPE": "U", "NORAD_CAT_ID": 38709, "ELEMENT_SET_NO": 999, "REV_AT_EPOCH": 69717, "BSTAR": 6.0667e-05, "MEAN_MOTION_DOT": 9.5e-07, "MEAN_MOTION_DDOT": 0}, "tle": {"line1": "1 38709U 12039C   25353.90598490  .00000095  00000+0  60667-4 0  9996", "line2": "2 38709  98.9639 102.4464 0010313 333.0281  27.0360 14.24910684697179"}}, "geometry": {"type": "Point", "coordinates": [87.69737481271255, 59.168937981811844]}}, {"type": "Feature", "properties": {"norad_id": 38755, "name": "SPOT 6", "group": "resource", "lat": -54.38712972011579, "lon": 70.673352502999, "alt_km": 705.5578385292274, "timestamp": "2025-12-20T11:30:28.027997+00:00", "meta": {"OBJECT_NAME": "SPOT 6", "OBJECT_ID": "2012-047A", "EPOCH": "2025-12-20T03:31:41.647584", "MEAN_MOTION": 14.58538, "ECCENTRICITY": 0.000131, "INCLINATION": 98.1571, "RA_OF_ASC_NODE": 58.7955, "ARG_OF_PERICENTER": 79.8987, "MEAN_ANOMALY": 280.2361, "EPHEMERIS_TYPE": 0, "CLASSIFICATION_TYPE": "U", "NORAD_CAT_ID": 38755, "ELEMENT_SET_NO": 999, "REV_AT_EPOCH": 70695, "BSTAR": 3.3217e-05, "MEAN_MOTION_DOT": 1.09e-06, "MEAN_MOTION_DDOT": 0}, "tle": {"line1": "1 38755U 12047A   25354.14700981  .00000109  00000+0  33217-4 0  9990", "line2": "2 38755  98.1571  58.7955 0001310  79.8987 280.2361 14.58538000706956"}}, "geometry": {"type": "Point", "coordinates": [70.673352502999, -54.38712972011579]}}]}